SL-3 R/B                
1 13403U 82079B   26044.12059231  .00005594  00000+0  22521-3 0  9993
2 13403  81.1440 222.0801 0024154 248.8758 110.9893 15.24425973373954
SL-14 R/B               
1 13553U 82092B   26043.82699611  .00000584  00000+0  62834-4 0  9998
2 13553  82.5707 164.6471 0021002  27.7183 138.9169 14.86638955325237
SL-3 R/B                
1 13819U 83010B   26044.03452824  .00014509  00000+0  30032-3 0  9997
2 13819  81.1023  32.4536 0018285 128.9069 231.3810 15.45459441354137
SL-3 R/B                
1 14208U 83075B   26044.09520149  .00012009  00000+0  32348-3 0  9998
2 14208  97.6131  47.7571 0020542 322.4483  37.5325 15.37782648326371
COSMOS 1536             
1 14699U 84013A   26043.69810995  .00005704  00000+0  23716-3 0  9994
2 14699  82.5469 132.6821 0014478  16.3973 343.7729 15.23488587268812
SL-14 R/B               
1 14820U 84027B   26044.11478103  .00000445  00000+0  48079-4 0  9991
2 14820  82.5393 268.0668 0019305  57.4651 302.8427 14.85951785243984
SL-8 R/B                
1 15483U 85006B   26044.17544786  .00000218  00000+0  81042-4 0  9997
2 15483  74.0465 306.2573 0019338 228.9805 241.8402 14.37771095150509
SL-12 R/B(2)            
1 15772U 85042D   26043.73177368  .00000097  00000+0  64971-4 0  9994
2 15772  71.1086 140.4578 0034686 168.2374 306.0985 14.21975532110848
SL-14 R/B               
1 15945U 85069B   26044.03967828  .00000560  00000+0  60569-4 0  9991
2 15945  82.5242  48.1160 0017179 274.7203  85.2052 14.86403523169171
SL-16 R/B               
1 16182U 85097B   26043.86646147 -.00000221  00000+0 -86783-4 0  9996
2 16182  71.0022 192.8094 0009711 288.7774 224.1794 14.16595413 83713
SL-14 R/B               
1 16496U 86006B   26044.15781828  .00000708  00000+0  72552-4 0  9991
2 16496  82.5259 282.8288 0076529 355.2377   4.8102 14.86782118145560
COSMOS 1743             
1 16719U 86034A   26044.16534252  .00031691  00000+0  44153-3 0  9998
2 16719  82.5327  99.5336 0004755  39.4946 320.6655 15.56757899176434
