CCSDS_OMM_VERS = 2.0
CREATION_DATE  = 
ORIGINATOR     = 

OBJECT_NAME    = SL-3 R/B
OBJECT_ID      = 1982-079B
CENTER_NAME    = EARTH
REF_FRAME      = TEME
TIME_SYSTEM    = UTC
MEAN_ELEMENT_THEORY = SGP/SGP4

EPOCH          = 2026-02-13T02:53:39.175584
MEAN_MOTION    = 15.24425973
ECCENTRICITY   = .0024154
INCLINATION    = 81.1440
RA_OF_ASC_NODE = 222.0801
ARG_OF_PERICENTER = 248.8758
MEAN_ANOMALY   = 110.9893

EPHEMERIS_TYPE = 0
CLASSIFICATION_TYPE = U
NORAD_CAT_ID   = 13403
ELEMENT_SET_NO = 999
REV_AT_EPOCH   = 37395
BSTAR          = .22521E-3
MEAN_MOTION_DOT = .5594E-4
MEAN_MOTION_DDOT = 0

CCSDS_OMM_VERS = 2.0
CREATION_DATE  = 
ORIGINATOR     = 

OBJECT_NAME    = SL-14 R/B
OBJECT_ID      = 1982-092B
CENTER_NAME    = EARTH
REF_FRAME      = TEME
TIME_SYSTEM    = UTC
MEAN_ELEMENT_THEORY = SGP/SGP4

EPOCH          = 2026-02-12T19:50:52.463904
MEAN_MOTION    = 14.86638955
ECCENTRICITY   = .00210021
INCLINATION    = 82.5707
RA_OF_ASC_NODE = 164.6471
ARG_OF_PERICENTER = 27.7183
MEAN_ANOMALY   = 138.9169

EPHEMERIS_TYPE = 0
CLASSIFICATION_TYPE = U
NORAD_CAT_ID   = 13553
ELEMENT_SET_NO = 999
REV_AT_EPOCH   = 32523
BSTAR          = .62833909E-4
MEAN_MOTION_DOT = .584E-5
MEAN_MOTION_DDOT = 0

CCSDS_OMM_VERS = 2.0
CREATION_DATE  = 
ORIGINATOR     = 

OBJECT_NAME    = SL-3 R/B
OBJECT_ID      = 1983-010B
CENTER_NAME    = EARTH
REF_FRAME      = TEME
TIME_SYSTEM    = UTC
MEAN_ELEMENT_THEORY = SGP/SGP4

EPOCH          = 2026-02-13T00:49:43.239936
MEAN_MOTION    = 15.45459441
ECCENTRICITY   = .0018285
INCLINATION    = 81.1023
RA_OF_ASC_NODE = 32.4536
ARG_OF_PERICENTER = 128.9069
MEAN_ANOMALY   = 231.3810

EPHEMERIS_TYPE = 0
CLASSIFICATION_TYPE = U
NORAD_CAT_ID   = 13819
ELEMENT_SET_NO = 999
REV_AT_EPOCH   = 35413
BSTAR          = .30032E-3
MEAN_MOTION_DOT = .14509E-3
MEAN_MOTION_DDOT = 0

CCSDS_OMM_VERS = 2.0
CREATION_DATE  = 
ORIGINATOR     = 

OBJECT_NAME    = SL-3 R/B
OBJECT_ID      = 1983-075B
CENTER_NAME    = EARTH
REF_FRAME      = TEME
TIME_SYSTEM    = UTC
MEAN_ELEMENT_THEORY = SGP/SGP4

EPOCH          = 2026-02-13T02:17:05.408736
MEAN_MOTION    = 15.37782648
ECCENTRICITY   = .0020542
INCLINATION    = 97.6131
RA_OF_ASC_NODE = 47.7571
ARG_OF_PERICENTER = 322.4483
MEAN_ANOMALY   = 37.5325

EPHEMERIS_TYPE = 0
CLASSIFICATION_TYPE = U
NORAD_CAT_ID   = 14208
ELEMENT_SET_NO = 999
REV_AT_EPOCH   = 32637
BSTAR          = .32348E-3
MEAN_MOTION_DOT = .12009E-3
MEAN_MOTION_DDOT = 0

CCSDS_OMM_VERS = 2.0
CREATION_DATE  = 
ORIGINATOR     = 

OBJECT_NAME    = COSMOS 1536
OBJECT_ID      = 1984-013A
CENTER_NAME    = EARTH
REF_FRAME      = TEME
TIME_SYSTEM    = UTC
MEAN_ELEMENT_THEORY = SGP/SGP4

EPOCH          = 2026-02-12T16:45:16.699680
MEAN_MOTION    = 15.23488587
ECCENTRICITY   = .00144788
INCLINATION    = 82.5469
RA_OF_ASC_NODE = 132.6821
ARG_OF_PERICENTER = 16.3973
MEAN_ANOMALY   = 343.7729

EPHEMERIS_TYPE = 0
CLASSIFICATION_TYPE = U
NORAD_CAT_ID   = 14699
ELEMENT_SET_NO = 999
REV_AT_EPOCH   = 26881
BSTAR          = .23716274E-3
MEAN_MOTION_DOT = .5704E-4
MEAN_MOTION_DDOT = 0

CCSDS_OMM_VERS = 2.0
CREATION_DATE  = 
ORIGINATOR     = 

OBJECT_NAME    = SL-14 R/B
OBJECT_ID      = 1984-027B
CENTER_NAME    = EARTH
REF_FRAME      = TEME
TIME_SYSTEM    = UTC
MEAN_ELEMENT_THEORY = SGP/SGP4

EPOCH          = 2026-02-13T02:45:17.080992
MEAN_MOTION    = 14.85951785
ECCENTRICITY   = .0019305
INCLINATION    = 82.5393
RA_OF_ASC_NODE = 268.0668
ARG_OF_PERICENTER = 57.4651
MEAN_ANOMALY   = 302.8427

EPHEMERIS_TYPE = 0
CLASSIFICATION_TYPE = U
NORAD_CAT_ID   = 14820
ELEMENT_SET_NO = 999
REV_AT_EPOCH   = 24398
BSTAR          = .48079E-4
MEAN_MOTION_DOT = .445E-5
MEAN_MOTION_DDOT = 0

CCSDS_OMM_VERS = 2.0
CREATION_DATE  = 
ORIGINATOR     = 

OBJECT_NAME    = SL-8 R/B
OBJECT_ID      = 1985-006B
CENTER_NAME    = EARTH
REF_FRAME      = TEME
TIME_SYSTEM    = UTC
MEAN_ELEMENT_THEORY = SGP/SGP4

EPOCH          = 2026-02-13T04:12:38.695104
MEAN_MOTION    = 14.37771095
ECCENTRICITY   = .0019338
INCLINATION    = 74.0465
RA_OF_ASC_NODE = 306.2573
ARG_OF_PERICENTER = 228.9805
MEAN_ANOMALY   = 241.8402

EPHEMERIS_TYPE = 0
CLASSIFICATION_TYPE = U
NORAD_CAT_ID   = 15483
ELEMENT_SET_NO = 999
REV_AT_EPOCH   = 15050
BSTAR          = .81042E-4
MEAN_MOTION_DOT = .218E-5
MEAN_MOTION_DDOT = 0

CCSDS_OMM_VERS = 2.0
CREATION_DATE  = 
ORIGINATOR     = 

OBJECT_NAME    = SL-12 R/B(2)
OBJECT_ID      = 1985-042D
CENTER_NAME    = EARTH
REF_FRAME      = TEME
TIME_SYSTEM    = UTC
MEAN_ELEMENT_THEORY = SGP/SGP4

EPOCH          = 2026-02-12T17:33:45.245952
MEAN_MOTION    = 14.21975532
ECCENTRICITY   = .00346864
INCLINATION    = 71.1086
RA_OF_ASC_NODE = 140.4578
ARG_OF_PERICENTER = 168.2374
MEAN_ANOMALY   = 306.0985

EPHEMERIS_TYPE = 0
CLASSIFICATION_TYPE = U
NORAD_CAT_ID   = 15772
ELEMENT_SET_NO = 999
REV_AT_EPOCH   = 11084
BSTAR          = .64971258E-4
MEAN_MOTION_DOT = .97E-6
MEAN_MOTION_DDOT = 0

CCSDS_OMM_VERS = 2.0
CREATION_DATE  = 
ORIGINATOR     = 

OBJECT_NAME    = SL-14 R/B
OBJECT_ID      = 1985-069B
CENTER_NAME    = EARTH
REF_FRAME      = TEME
TIME_SYSTEM    = UTC
MEAN_ELEMENT_THEORY = SGP/SGP4

EPOCH          = 2026-02-13T00:57:08.203392
MEAN_MOTION    = 14.86403523
ECCENTRICITY   = .0017179
INCLINATION    = 82.5242
RA_OF_ASC_NODE = 48.1160
ARG_OF_PERICENTER = 274.7203
MEAN_ANOMALY   = 85.2052

EPHEMERIS_TYPE = 0
CLASSIFICATION_TYPE = U
NORAD_CAT_ID   = 15945
ELEMENT_SET_NO = 999
REV_AT_EPOCH   = 16917
BSTAR          = .60569E-4
MEAN_MOTION_DOT = .56E-5
MEAN_MOTION_DDOT = 0

CCSDS_OMM_VERS = 2.0
CREATION_DATE  = 
ORIGINATOR     = 

OBJECT_NAME    = SL-16 R/B
OBJECT_ID      = 1985-097B
CENTER_NAME    = EARTH
REF_FRAME      = TEME
TIME_SYSTEM    = UTC
MEAN_ELEMENT_THEORY = SGP/SGP4

EPOCH          = 2026-02-12T20:47:42.271008
MEAN_MOTION    = 14.16595413
ECCENTRICITY   = .0009711
INCLINATION    = 71.0022
RA_OF_ASC_NODE = 192.8094
ARG_OF_PERICENTER = 288.7774
MEAN_ANOMALY   = 224.1794

EPHEMERIS_TYPE = 0
CLASSIFICATION_TYPE = U
NORAD_CAT_ID   = 16182
ELEMENT_SET_NO = 999
REV_AT_EPOCH   = 8371
BSTAR          = -.86783E-4
MEAN_MOTION_DOT = -.221E-5
MEAN_MOTION_DDOT = 0

CCSDS_OMM_VERS = 2.0
CREATION_DATE  = 
ORIGINATOR     = 

OBJECT_NAME    = SL-14 R/B
OBJECT_ID      = 1986-006B
CENTER_NAME    = EARTH
REF_FRAME      = TEME
TIME_SYSTEM    = UTC
MEAN_ELEMENT_THEORY = SGP/SGP4

EPOCH          = 2026-02-13T03:47:15.499392
MEAN_MOTION    = 14.86782118
ECCENTRICITY   = .0076529
INCLINATION    = 82.5259
RA_OF_ASC_NODE = 282.8288
ARG_OF_PERICENTER = 355.2377
MEAN_ANOMALY   = 4.8102

EPHEMERIS_TYPE = 0
CLASSIFICATION_TYPE = U
NORAD_CAT_ID   = 16496
ELEMENT_SET_NO = 999
REV_AT_EPOCH   = 14556
BSTAR          = .72552E-4
MEAN_MOTION_DOT = .708E-5
MEAN_MOTION_DDOT = 0

CCSDS_OMM_VERS = 2.0
CREATION_DATE  = 
ORIGINATOR     = 

OBJECT_NAME    = COSMOS 1743
OBJECT_ID      = 1986-034A
CENTER_NAME    = EARTH
REF_FRAME      = TEME
TIME_SYSTEM    = UTC
MEAN_ELEMENT_THEORY = SGP/SGP4

EPOCH          = 2026-02-13T03:58:05.593728
MEAN_MOTION    = 15.56757899
ECCENTRICITY   = .0004755
INCLINATION    = 82.5327
RA_OF_ASC_NODE = 99.5336
ARG_OF_PERICENTER = 39.4946
MEAN_ANOMALY   = 320.6655

EPHEMERIS_TYPE = 0
CLASSIFICATION_TYPE = U
NORAD_CAT_ID   = 16719
ELEMENT_SET_NO = 999
REV_AT_EPOCH   = 17643
BSTAR          = .44153E-3
MEAN_MOTION_DOT = .31691E-3
MEAN_MOTION_DDOT = 0

